TIANMU-1 07             
1 57399U 23101A   26065.57454230  .00008352  00000+0  29795-3 0  9991
2 57399  97.2728 118.5929 0004609 142.4105 217.7458 15.29118809145964
STARLINK-32365          
1 61625U 24191E   26068.26212938 -.00000967  00000+0 -25662-4 0  9990
2 61625  42.9950 156.6897 0000305 104.6492 255.4394 15.27574060 77471
